#aV2014  1  3  0  0  0.00000000     288 DD+AD WGS84 FIT  NGA
## 1773 432000.00000000   300.00000000 56660 0.0000000000000
+   31     1  2  3  4  5  6  7  8  9 10 11 12 13 14 15 16 17
+         18 19 20 21 22 23 24 25 26 27 28 29 31 32  0  0  0
+          0  0  0  0  0  0  0  0  0  0  0  0  0  0  0  0  0
+          0  0  0  0  0  0  0  0  0  0  0  0  0  0  0  0  0
+          0  0  0  0  0  0  0  0  0  0  0  0  0  0  0  0  0
++         2  2  2  2  2  2  2  2  2  2  2  2  2  2  2  2  2
++         2  2  2  2  2  2  2  2  2  2  2  2  2  2  0  0  0
++         0  0  0  0  0  0  0  0  0  0  0  0  0  0  0  0  0
++         0  0  0  0  0  0  0  0  0  0  0  0  0  0  0  0  0
++         0  0  0  0  0  0  0  0  0  0  0  0  0  0  0  0  0
%c cc cc ccc ccc cccc cccc cccc cccc ccccc ccccc ccccc ccccc
%c cc cc ccc ccc cccc cccc cccc cccc ccccc ccccc ccccc ccccc
%f  0.0000000  0.000000000  0.00000000000  0.000000000000000
%f  0.0000000  0.000000000  0.00000000000  0.000000000000000
%i    0    0    0    0      0      0      0      0         0
%i    0    0    0    0      0      0      0      0         0
/*      NGA, ST. LOUIS,MO.                                  
/*   EPHEMERIS COMPUTED FROM  1 DAYS OF DATA                
/*   EPOCHA SMOOTHER                                       
/* CCCCCCCCCCCCCCCCCCCCCCCCCCCCCCCCCCCCCCCCCCCCCCCCCCCCCCCCC
*  2014  1  3  3 40  0.00000000
P  1  -8847.881193 -13751.635322 -20986.070267     97.895180                    
V  1  26288.733366  -3745.941221  -8529.850854      0.026237                    
P  2 -14824.186199  14408.574862  16638.176364    470.546450                    
V  2 -21067.310007    514.256122 -20013.339855      0.021936                    
P  3   7090.383586 -25477.252355    514.778675    307.395975                    
V  3   3279.078651   2199.253337  31325.570023      0.049222                    
P  4 -25612.678011   6170.048869   3984.435182      4.693171                    
V  4  -5785.512292  -2598.920157 -30542.659505      0.003025                    
P  5  -4026.247099  17713.896435  19282.818553   -393.578200                    
V  5 -16061.396767 -18786.746073  14030.611199      0.011645                    
P  6  13413.514204 -21367.967271   7677.606281    219.917702                    
V  6      2.987208  10401.475486  29531.113804      0.157701                    
P  7 -22434.246441  -6654.051577  12933.627526    298.524874                    
V  7  15929.006010  -3232.830992  25792.143522      0.041670                    
P  8 -26781.934165  -1399.054583   2168.578751     11.020364                    
V  8   2519.731032  -1122.654303  31987.588140      0.002142                    
P  9 -26482.923473   2292.448549   1253.092624    295.193460                    
V  9   1973.652279  -2253.934115  32092.296945      0.029172                    
P 10 -17471.435993    407.087016  19784.817140   -108.463474                    
V 10 -14226.419507 -21551.884848 -11500.169488     -0.015308                    
P 11  -1461.976750 -17482.359305 -20386.709607   -452.268325                    
V 11  23412.311621  -9408.917962   6775.665829     -0.033633                    
P 12  10398.141399  23477.259228  -7265.705819    177.874312                    
V 12  -6585.891652  -6490.259819 -30391.223397      0.023165                    
P 13 -10551.028002 -10913.715195  21645.758770     43.706845                    
V 13  13932.929704 -24020.939385  -5425.277515     -0.037930                    
P 14  17696.476470  -7155.619444 -18191.565714    205.862770                    
V 14  -9525.870824  21603.659140 -17694.951866     -0.012160                    
P 15  -1836.078947  24483.067218  -9800.119920   -155.583619                    
V 15  -7662.589938  10448.361215  27944.596253     -0.020210                    
P 16   4180.784853 -17188.472522  19665.966470   -236.726416                    
V 16  14799.469548  20280.666808  14890.590648      0.013132                    
P 17 -17510.932764   7775.995003 -18048.850555    -55.761426                    
V 17   8665.866687 -21883.216329 -17836.044241     -0.035465                    
P 18  19991.257655  14814.354851  -9321.413800    293.948191                    
V 18   4798.367750  11909.486919  27604.013970      0.020993                    
P 19   5148.978570 -23896.346440  -9958.402422   -429.664086                    
V 19   8391.520880  -9782.237478  28578.850472     -0.025620                    
P 20 -13796.877612 -22221.543763  -5032.389044    149.788650                    
V 20   6803.718714   2340.952897 -30054.831287      0.031270                    
P 21  23699.085862   5799.785802  11665.616382   -336.073482                    
V 21 -13370.595920   4292.132304  25920.599893     -0.020949                    
P 22  19293.378162   3218.887423 -17835.119640    204.520915                    
V 22  12226.880416  19733.121303  16452.548659      0.022957                    
P 23  -3982.870608 -20204.261691  16640.318782     15.996732                    
V 23  10525.725222 -18453.893095 -20397.564721     -0.033026                    
P 24   3574.757654  14918.143401 -21690.873226    -20.899134                    
V 24 -27290.120739   3668.322929  -1897.325820     -0.006888                    
P 25  18170.027979  18886.679265   4622.578505      6.669137                    
V 25   1776.256156   6065.023498 -31272.362743      0.024329                    
P 26 -12612.681255  23166.866654   -107.440594    204.649363                    
V 26  -1960.361131  -1811.343239  32325.574652     -0.104939                    
P 27  12590.411384 -23083.232421   3650.863022    -12.244505                    
V 27    714.896126   5352.811012  31357.971470     -0.023137                    
P 28 -18503.385949  -7826.026946 -16848.952025    321.602884                    
V 28 -11165.614463 -19542.156587  20457.396478      0.030423                    
P 29   8747.188723  14355.283807  20616.848197    500.312871                    
V 29 -12230.845110  23012.032140 -10817.209603      0.029446                    
P 31  24498.490372  -7473.177271   7777.277714    331.913395                    
V 31   9672.128003    936.249616 -29924.426307      0.004446                    
P 32  -3111.750712 -23034.511086 -13252.907798   -507.420630                    
V 32  10723.814946  13088.605906 -24580.676194      0.054789                    
EOF
